{
  "type": "FeatureCollection",
  "name": "mat",
  "features": [
    {
      "type": "Feature",
      "geometry": {
        "type": "Polygon",
        "coordinates": [
          [
            [
              17.207839928214582,
              40.51170196678392
            ],
            [
              17.21133607737228,
              40.51170196678392
            ],
            [
              17.21133607737228,
              40.51292230765016
            ],
            [
              17.207839928214582,
              40.51292230765016
            ],
            [
              17.207839928214582,
              40.51170196678392
            ]
          ]
        ]
      },
      "properties": {
        "su_fid": 1,
        "id_su": 801,
        "su_dscu": "US A1.1",
        "id_evd": 2201,
        "evidence_id_old_str": "APU.SOL.01-EV01",
        "construction_type_id": 930,
        "construction_type": "ditch",
        "site_code": "APU.SOL.01",
        "municipality": "Serravento",
        "locality": "Masseria delle Spighe",
        "address": "Contrada Solagna",
        "site_group": "APU.SOL.01 - Serravento - Masseria delle Spighe - Contrada Solagna",
        "n_impasto_coarse_ware": 0,
        "n_impasto_semifine_ware": 0,
        "n_impasto_fine_ware": 1,
        "n_red_and_black": 0,
        "n_wash_slipped_red": 0,
        "n_wash_slipped_black": 0,
        "n_etrusco_padana_type": 0,
        "n_black_gloss_attic_ware": 1,
        "n_glossy_surfaced_ware": 0,
        "n_glossy_surfaced_decoration": 0,
        "n_fired_clay": 0,
        "n_bronze": 0,
        "n_iron": 0,
        "n_lithic": 0,
        "n_glass_paste": 0
      }
    },
    {
      "type": "Feature",
      "geometry": {
        "type": "Polygon",
        "coordinates": [
          [
            [
              17.21037368180445,
              40.5142721114813
            ],
            [
              17.213746284147685,
              40.5142721114813
            ],
            [
              17.213746284147685,
              40.51622844448506
            ],
            [
              17.21037368180445,
              40.51622844448506
            ],
            [
              17.21037368180445,
              40.5142721114813
            ]
          ]
        ]
      },
      "properties": {
        "su_fid": 2,
        "id_su": 802,
        "su_dscu": "US A1.2",
        "id_evd": 2201,
        "evidence_id_old_str": "APU.SOL.01-EV01",
        "construction_type_id": 930,
        "construction_type": "ditch",
        "site_code": "APU.SOL.01",
        "municipality": "Serravento",
        "locality": "Masseria delle Spighe",
        "address": "Contrada Solagna",
        "site_group": "APU.SOL.01 - Serravento - Masseria delle Spighe - Contrada Solagna",
        "n_impasto_coarse_ware": 0,
        "n_impasto_semifine_ware": 1,
        "n_impasto_fine_ware": 0,
        "n_red_and_black": 0,
        "n_wash_slipped_red": 0,
        "n_wash_slipped_black": 0,
        "n_etrusco_padana_type": 0,
        "n_black_gloss_attic_ware": 0,
        "n_glossy_surfaced_ware": 0,
        "n_glossy_surfaced_decoration": 0,
        "n_fired_clay": 0,
        "n_bronze": 1,
        "n_iron": 0,
        "n_lithic": 0,
        "n_glass_paste": 0
      }
    },
    {
      "type": "Feature",
      "geometry": {
        "type": "Polygon",
        "coordinates": [
          [
            [
              17.207848759066394,
              40.51676140637901
            ],
            [
              17.210587880850433,
              40.51676140637901
            ],
            [
              17.210587880850433,
              40.51918871848418
            ],
            [
              17.207848759066394,
              40.51918871848418
            ],
            [
              17.207848759066394,
              40.51676140637901
            ]
          ]
        ]
      },
      "properties": {
        "su_fid": 3,
        "id_su": 803,
        "su_dscu": "US A1.3",
        "id_evd": 2201,
        "evidence_id_old_str": "APU.SOL.01-EV01",
        "construction_type_id": 930,
        "construction_type": "ditch",
        "site_code": "APU.SOL.01",
        "municipality": "Serravento",
        "locality": "Masseria delle Spighe",
        "address": "Contrada Solagna",
        "site_group": "APU.SOL.01 - Serravento - Masseria delle Spighe - Contrada Solagna",
        "n_impasto_coarse_ware": 0,
        "n_impasto_semifine_ware": 0,
        "n_impasto_fine_ware": 0,
        "n_red_and_black": 1,
        "n_wash_slipped_red": 0,
        "n_wash_slipped_black": 0,
        "n_etrusco_padana_type": 0,
        "n_black_gloss_attic_ware": 0,
        "n_glossy_surfaced_ware": 0,
        "n_glossy_surfaced_decoration": 0,
        "n_fired_clay": 0,
        "n_bronze": 2,
        "n_iron": 0,
        "n_lithic": 0,
        "n_glass_paste": 1
      }
    },
    {
      "type": "Feature",
      "geometry": {
        "type": "Polygon",
        "coordinates": [
          [
            [
              17.213827534720117,
              40.51190997025768
            ],
            [
              17.21704633996238,
              40.51190997025768
            ],
            [
              17.21704633996238,
              40.51426152850285
            ],
            [
              17.213827534720117,
              40.51426152850285
            ],
            [
              17.213827534720117,
              40.51190997025768
            ]
          ]
        ]
      },
      "properties": {
        "su_fid": 4,
        "id_su": 804,
        "su_dscu": "US A2.1",
        "id_evd": 2202,
        "evidence_id_old_str": "APU.SOL.01-EV02",
        "construction_type_id": 931,
        "construction_type": "hut floor",
        "site_code": "APU.SOL.01",
        "municipality": "Serravento",
        "locality": "Masseria delle Spighe",
        "address": "Contrada Solagna",
        "site_group": "APU.SOL.01 - Serravento - Masseria delle Spighe - Contrada Solagna",
        "n_impasto_coarse_ware": 0,
        "n_impasto_semifine_ware": 0,
        "n_impasto_fine_ware": 0,
        "n_red_and_black": 0,
        "n_wash_slipped_red": 0,
        "n_wash_slipped_black": 0,
        "n_etrusco_padana_type": 0,
        "n_black_gloss_attic_ware": 0,
        "n_glossy_surfaced_ware": 0,
        "n_glossy_surfaced_decoration": 0,
        "n_fired_clay": 0,
        "n_bronze": 2,
        "n_iron": 0,
        "n_lithic": 0,
        "n_glass_paste": 0
      }
    },
    {
      "type": "Feature",
      "geometry": {
        "type": "Polygon",
        "coordinates": [
          [
            [
              17.21585086975981,
              40.515359831289835
            ],
            [
              17.218850400020283,
              40.515359831289835
            ],
            [
              17.218850400020283,
              40.51670083777115
            ],
            [
              17.21585086975981,
              40.51670083777115
            ],
            [
              17.21585086975981,
              40.515359831289835
            ]
          ]
        ]
      },
      "properties": {
        "su_fid": 5,
        "id_su": 805,
        "su_dscu": "US A2.2",
        "id_evd": 2202,
        "evidence_id_old_str": "APU.SOL.01-EV02",
        "construction_type_id": 931,
        "construction_type": "hut floor",
        "site_code": "APU.SOL.01",
        "municipality": "Serravento",
        "locality": "Masseria delle Spighe",
        "address": "Contrada Solagna",
        "site_group": "APU.SOL.01 - Serravento - Masseria delle Spighe - Contrada Solagna",
        "n_impasto_coarse_ware": 1,
        "n_impasto_semifine_ware": 1,
        "n_impasto_fine_ware": 1,
        "n_red_and_black": 1,
        "n_wash_slipped_red": 0,
        "n_wash_slipped_black": 0,
        "n_etrusco_padana_type": 0,
        "n_black_gloss_attic_ware": 1,
        "n_glossy_surfaced_ware": 0,
        "n_glossy_surfaced_decoration": 0,
        "n_fired_clay": 0,
        "n_bronze": 1,
        "n_iron": 0,
        "n_lithic": 0,
        "n_glass_paste": 0
      }
    },
    {
      "type": "Feature",
      "geometry": {
        "type": "Polygon",
        "coordinates": [
          [
            [
              17.21435473636455,
              40.517196911685744
            ],
            [
              17.216866957160573,
              40.517196911685744
            ],
            [
              17.216866957160573,
              40.520434489337845
            ],
            [
              17.21435473636455,
              40.520434489337845
            ],
            [
              17.21435473636455,
              40.517196911685744
            ]
          ]
        ]
      },
      "properties": {
        "su_fid": 6,
        "id_su": 806,
        "su_dscu": "US A2.3",
        "id_evd": 2202,
        "evidence_id_old_str": "APU.SOL.01-EV02",
        "construction_type_id": 931,
        "construction_type": "hut floor",
        "site_code": "APU.SOL.01",
        "municipality": "Serravento",
        "locality": "Masseria delle Spighe",
        "address": "Contrada Solagna",
        "site_group": "APU.SOL.01 - Serravento - Masseria delle Spighe - Contrada Solagna",
        "n_impasto_coarse_ware": 8,
        "n_impasto_semifine_ware": 3,
        "n_impasto_fine_ware": 1,
        "n_red_and_black": 3,
        "n_wash_slipped_red": 0,
        "n_wash_slipped_black": 0,
        "n_etrusco_padana_type": 0,
        "n_black_gloss_attic_ware": 2,
        "n_glossy_surfaced_ware": 0,
        "n_glossy_surfaced_decoration": 0,
        "n_fired_clay": 0,
        "n_bronze": 14,
        "n_iron": 0,
        "n_lithic": 0,
        "n_glass_paste": 1
      }
    },
    {
      "type": "Feature",
      "geometry": {
        "type": "Polygon",
        "coordinates": [
          [
            [
              9.046778700075079,
              40.11372561048814
            ],
            [
              9.047979499530298,
              40.11372561048814
            ],
            [
              9.047979499530298,
              40.115546867804134
            ],
            [
              9.046778700075079,
              40.115546867804134
            ],
            [
              9.046778700075079,
              40.11372561048814
            ]
          ]
        ]
      },
      "properties": {
        "su_fid": 7,
        "id_su": 807,
        "su_dscu": "US B1.1",
        "id_evd": 2203,
        "evidence_id_old_str": "SAR.LUN.02-EV01",
        "construction_type_id": 933,
        "construction_type": "storage pit",
        "site_code": "SAR.LUN.02",
        "municipality": "Lunamatrona Nova",
        "locality": "Nuraxi Pranu",
        "address": "Strada Bianca 7",
        "site_group": "SAR.LUN.02 - Lunamatrona Nova - Nuraxi Pranu - Strada Bianca 7",
        "n_impasto_coarse_ware": 0,
        "n_impasto_semifine_ware": 0,
        "n_impasto_fine_ware": 0,
        "n_red_and_black": 0,
        "n_wash_slipped_red": 0,
        "n_wash_slipped_black": 0,
        "n_etrusco_padana_type": 0,
        "n_black_gloss_attic_ware": 0,
        "n_glossy_surfaced_ware": 0,
        "n_glossy_surfaced_decoration": 0,
        "n_fired_clay": 4,
        "n_bronze": 0,
        "n_iron": 0,
        "n_lithic": 0,
        "n_glass_paste": 0
      }
    },
    {
      "type": "Feature",
      "geometry": {
        "type": "Polygon",
        "coordinates": [
          [
            [
              9.048041619971842,
              40.11606146818637
            ],
            [
              9.051477288047908,
              40.11606146818637
            ],
            [
              9.051477288047908,
              40.119225458991195
            ],
            [
              9.048041619971842,
              40.119225458991195
            ],
            [
              9.048041619971842,
              40.11606146818637
            ]
          ]
        ]
      },
      "properties": {
        "su_fid": 8,
        "id_su": 808,
        "su_dscu": "US B1.2",
        "id_evd": 2203,
        "evidence_id_old_str": "SAR.LUN.02-EV01",
        "construction_type_id": 933,
        "construction_type": "storage pit",
        "site_code": "SAR.LUN.02",
        "municipality": "Lunamatrona Nova",
        "locality": "Nuraxi Pranu",
        "address": "Strada Bianca 7",
        "site_group": "SAR.LUN.02 - Lunamatrona Nova - Nuraxi Pranu - Strada Bianca 7",
        "n_impasto_coarse_ware": 0,
        "n_impasto_semifine_ware": 0,
        "n_impasto_fine_ware": 0,
        "n_red_and_black": 0,
        "n_wash_slipped_red": 0,
        "n_wash_slipped_black": 0,
        "n_etrusco_padana_type": 0,
        "n_black_gloss_attic_ware": 0,
        "n_glossy_surfaced_ware": 0,
        "n_glossy_surfaced_decoration": 0,
        "n_fired_clay": 1,
        "n_bronze": 0,
        "n_iron": 0,
        "n_lithic": 0,
        "n_glass_paste": 0
      }
    },
    {
      "type": "Feature",
      "geometry": {
        "type": "Polygon",
        "coordinates": [
          [
            [
              9.052121081211762,
              40.115415937286826
            ],
            [
              9.055034353250054,
              40.115415937286826
            ],
            [
              9.055034353250054,
              40.11677627006027
            ],
            [
              9.052121081211762,
              40.11677627006027
            ],
            [
              9.052121081211762,
              40.115415937286826
            ]
          ]
        ]
      },
      "properties": {
        "su_fid": 9,
        "id_su": 809,
        "su_dscu": "US B2.1",
        "id_evd": 2204,
        "evidence_id_old_str": "SAR.LUN.02-EV02",
        "construction_type_id": 934,
        "construction_type": "workshop layer",
        "site_code": "SAR.LUN.02",
        "municipality": "Lunamatrona Nova",
        "locality": "Nuraxi Pranu",
        "address": "Strada Bianca 7",
        "site_group": "SAR.LUN.02 - Lunamatrona Nova - Nuraxi Pranu - Strada Bianca 7",
        "n_impasto_coarse_ware": 1,
        "n_impasto_semifine_ware": 0,
        "n_impasto_fine_ware": 0,
        "n_red_and_black": 0,
        "n_wash_slipped_red": 0,
        "n_wash_slipped_black": 0,
        "n_etrusco_padana_type": 0,
        "n_black_gloss_attic_ware": 0,
        "n_glossy_surfaced_ware": 0,
        "n_glossy_surfaced_decoration": 0,
        "n_fired_clay": 12,
        "n_bronze": 0,
        "n_iron": 16,
        "n_lithic": 2,
        "n_glass_paste": 1
      }
    },
    {
      "type": "Feature",
      "geometry": {
        "type": "Polygon",
        "coordinates": [
          [
            [
              9.054235766072392,
              40.117782382504274
            ],
            [
              9.055975061896302,
              40.117782382504274
            ],
            [
              9.055975061896302,
              40.12090058382208
            ],
            [
              9.054235766072392,
              40.12090058382208
            ],
            [
              9.054235766072392,
              40.117782382504274
            ]
          ]
        ]
      },
      "properties": {
        "su_fid": 10,
        "id_su": 810,
        "su_dscu": "US B2.2",
        "id_evd": 2204,
        "evidence_id_old_str": "SAR.LUN.02-EV02",
        "construction_type_id": 934,
        "construction_type": "workshop layer",
        "site_code": "SAR.LUN.02",
        "municipality": "Lunamatrona Nova",
        "locality": "Nuraxi Pranu",
        "address": "Strada Bianca 7",
        "site_group": "SAR.LUN.02 - Lunamatrona Nova - Nuraxi Pranu - Strada Bianca 7",
        "n_impasto_coarse_ware": 0,
        "n_impasto_semifine_ware": 0,
        "n_impasto_fine_ware": 0,
        "n_red_and_black": 0,
        "n_wash_slipped_red": 0,
        "n_wash_slipped_black": 0,
        "n_etrusco_padana_type": 0,
        "n_black_gloss_attic_ware": 0,
        "n_glossy_surfaced_ware": 0,
        "n_glossy_surfaced_decoration": 0,
        "n_fired_clay": 3,
        "n_bronze": 1,
        "n_iron": 1,
        "n_lithic": 1,
        "n_glass_paste": 0
      }
    },
    {
      "type": "Feature",
      "geometry": {
        "type": "Polygon",
        "coordinates": [
          [
            [
              9.057055541512161,
              40.116529393058535
            ],
            [
              9.059556770532003,
              40.116529393058535
            ],
            [
              9.059556770532003,
              40.119067230931286
            ],
            [
              9.057055541512161,
              40.119067230931286
            ],
            [
              9.057055541512161,
              40.116529393058535
            ]
          ]
        ]
      },
      "properties": {
        "su_fid": 11,
        "id_su": 811,
        "su_dscu": "US B3.1",
        "id_evd": 2205,
        "evidence_id_old_str": "SAR.LUN.02-EV03",
        "construction_type_id": 935,
        "construction_type": "kiln collapse",
        "site_code": "SAR.LUN.02",
        "municipality": "Lunamatrona Nova",
        "locality": "Nuraxi Pranu",
        "address": "Strada Bianca 7",
        "site_group": "SAR.LUN.02 - Lunamatrona Nova - Nuraxi Pranu - Strada Bianca 7",
        "n_impasto_coarse_ware": 1,
        "n_impasto_semifine_ware": 0,
        "n_impasto_fine_ware": 0,
        "n_red_and_black": 0,
        "n_wash_slipped_red": 0,
        "n_wash_slipped_black": 0,
        "n_etrusco_padana_type": 0,
        "n_black_gloss_attic_ware": 0,
        "n_glossy_surfaced_ware": 0,
        "n_glossy_surfaced_decoration": 0,
        "n_fired_clay": 7,
        "n_bronze": 1,
        "n_iron": 0,
        "n_lithic": 3,
        "n_glass_paste": 0
      }
    },
    {
      "type": "Feature",
      "geometry": {
        "type": "Polygon",
        "coordinates": [
          [
            [
              9.060650751623665,
              40.11985211305156
            ],
            [
              9.062565223121457,
              40.11985211305156
            ],
            [
              9.062565223121457,
              40.12150331978996
            ],
            [
              9.060650751623665,
              40.12150331978996
            ],
            [
              9.060650751623665,
              40.11985211305156
            ]
          ]
        ]
      },
      "properties": {
        "su_fid": 12,
        "id_su": 812,
        "su_dscu": "US B3.2",
        "id_evd": "",
        "evidence_id_old_str": "evidence ND",
        "construction_type_id": "",
        "construction_type": "construction_type ND",
        "site_code": "SAR.LUN.02",
        "municipality": "Lunamatrona Nova",
        "locality": "Nuraxi Pranu",
        "address": "Strada Bianca 7",
        "site_group": "SAR.LUN.02 - Lunamatrona Nova - Nuraxi Pranu - Strada Bianca 7",
        "n_impasto_coarse_ware": 0,
        "n_impasto_semifine_ware": 0,
        "n_impasto_fine_ware": 0,
        "n_red_and_black": 0,
        "n_wash_slipped_red": 0,
        "n_wash_slipped_black": 0,
        "n_etrusco_padana_type": 0,
        "n_black_gloss_attic_ware": 0,
        "n_glossy_surfaced_ware": 0,
        "n_glossy_surfaced_decoration": 0,
        "n_fired_clay": 14,
        "n_bronze": 0,
        "n_iron": 0,
        "n_lithic": 4,
        "n_glass_paste": 0
      }
    },
    {
      "type": "Feature",
      "geometry": {
        "type": "Polygon",
        "coordinates": [
          [
            [
              14.263195364965737,
              37.42686651674033
            ],
            [
              14.26673927850583,
              37.42686651674033
            ],
            [
              14.26673927850583,
              37.43021215267245
            ],
            [
              14.263195364965737,
              37.43021215267245
            ],
            [
              14.263195364965737,
              37.42686651674033
            ]
          ]
        ]
      },
      "properties": {
        "su_fid": 13,
        "id_su": 813,
        "su_dscu": "US C1.1",
        "id_evd": 2206,
        "evidence_id_old_str": "SIC.MEL.03-EV01",
        "construction_type_id": 936,
        "construction_type": "kiln collapse",
        "site_code": "SIC.MEL.03",
        "municipality": "Melantera",
        "locality": "Piano delle Anfore",
        "address": "Vallone Secco",
        "site_group": "SIC.MEL.03 - Melantera - Piano delle Anfore - Vallone Secco",
        "n_impasto_coarse_ware": 0,
        "n_impasto_semifine_ware": 0,
        "n_impasto_fine_ware": 0,
        "n_red_and_black": 0,
        "n_wash_slipped_red": 1,
        "n_wash_slipped_black": 0,
        "n_etrusco_padana_type": 0,
        "n_black_gloss_attic_ware": 0,
        "n_glossy_surfaced_ware": 2,
        "n_glossy_surfaced_decoration": 0,
        "n_fired_clay": 0,
        "n_bronze": 0,
        "n_iron": 0,
        "n_lithic": 0,
        "n_glass_paste": 0
      }
    },
    {
      "type": "Feature",
      "geometry": {
        "type": "Polygon",
        "coordinates": [
          [
            [
              14.266603275958932,
              37.42899496320689
            ],
            [
              14.268958368595879,
              37.42899496320689
            ],
            [
              14.268958368595879,
              37.43237021875798
            ],
            [
              14.266603275958932,
              37.43237021875798
            ],
            [
              14.266603275958932,
              37.42899496320689
            ]
          ]
        ]
      },
      "properties": {
        "su_fid": 14,
        "id_su": 814,
        "su_dscu": "US C1.2",
        "id_evd": 2206,
        "evidence_id_old_str": "SIC.MEL.03-EV01",
        "construction_type_id": 936,
        "construction_type": "kiln collapse",
        "site_code": "SIC.MEL.03",
        "municipality": "Melantera",
        "locality": "Piano delle Anfore",
        "address": "Vallone Secco",
        "site_group": "SIC.MEL.03 - Melantera - Piano delle Anfore - Vallone Secco",
        "n_impasto_coarse_ware": 0,
        "n_impasto_semifine_ware": 0,
        "n_impasto_fine_ware": 0,
        "n_red_and_black": 0,
        "n_wash_slipped_red": 0,
        "n_wash_slipped_black": 0,
        "n_etrusco_padana_type": 0,
        "n_black_gloss_attic_ware": 0,
        "n_glossy_surfaced_ware": 0,
        "n_glossy_surfaced_decoration": 0,
        "n_fired_clay": 0,
        "n_bronze": 0,
        "n_iron": 0,
        "n_lithic": 0,
        "n_glass_paste": 0
      }
    },
    {
      "type": "Feature",
      "geometry": {
        "type": "Polygon",
        "coordinates": [
          [
            [
              14.263929472344945,
              37.43279715633828
            ],
            [
              14.267269003599598,
              37.43279715633828
            ],
            [
              14.267269003599598,
              37.43396399605909
            ],
            [
              14.263929472344945,
              37.43396399605909
            ],
            [
              14.263929472344945,
              37.43279715633828
            ]
          ]
        ]
      },
      "properties": {
        "su_fid": 15,
        "id_su": 815,
        "su_dscu": "US C1.3",
        "id_evd": 2206,
        "evidence_id_old_str": "SIC.MEL.03-EV01",
        "construction_type_id": 936,
        "construction_type": "kiln collapse",
        "site_code": "SIC.MEL.03",
        "municipality": "Melantera",
        "locality": "Piano delle Anfore",
        "address": "Vallone Secco",
        "site_group": "SIC.MEL.03 - Melantera - Piano delle Anfore - Vallone Secco",
        "n_impasto_coarse_ware": 0,
        "n_impasto_semifine_ware": 0,
        "n_impasto_fine_ware": 1,
        "n_red_and_black": 0,
        "n_wash_slipped_red": 0,
        "n_wash_slipped_black": 0,
        "n_etrusco_padana_type": 0,
        "n_black_gloss_attic_ware": 0,
        "n_glossy_surfaced_ware": 0,
        "n_glossy_surfaced_decoration": 0,
        "n_fired_clay": 0,
        "n_bronze": 0,
        "n_iron": 0,
        "n_lithic": 0,
        "n_glass_paste": 0
      }
    },
    {
      "type": "Feature",
      "geometry": {
        "type": "Polygon",
        "coordinates": [
          [
            [
              14.266090253640728,
              37.43575446587687
            ],
            [
              14.269613498032074,
              37.43575446587687
            ],
            [
              14.269613498032074,
              37.43726234444357
            ],
            [
              14.266090253640728,
              37.43726234444357
            ],
            [
              14.266090253640728,
              37.43575446587687
            ]
          ]
        ]
      },
      "properties": {
        "su_fid": 16,
        "id_su": 816,
        "su_dscu": "US C1.4",
        "id_evd": 2206,
        "evidence_id_old_str": "SIC.MEL.03-EV01",
        "construction_type_id": 936,
        "construction_type": "kiln collapse",
        "site_code": "SIC.MEL.03",
        "municipality": "Melantera",
        "locality": "Piano delle Anfore",
        "address": "Vallone Secco",
        "site_group": "SIC.MEL.03 - Melantera - Piano delle Anfore - Vallone Secco",
        "n_impasto_coarse_ware": 0,
        "n_impasto_semifine_ware": 0,
        "n_impasto_fine_ware": 2,
        "n_red_and_black": 0,
        "n_wash_slipped_red": 0,
        "n_wash_slipped_black": 0,
        "n_etrusco_padana_type": 0,
        "n_black_gloss_attic_ware": 1,
        "n_glossy_surfaced_ware": 5,
        "n_glossy_surfaced_decoration": 0,
        "n_fired_clay": 0,
        "n_bronze": 1,
        "n_iron": 0,
        "n_lithic": 0,
        "n_glass_paste": 3
      }
    },
    {
      "type": "Feature",
      "geometry": {
        "type": "Polygon",
        "coordinates": [
          [
            [
              14.269600196892924,
              37.42767969498737
            ],
            [
              14.271263271179535,
              37.42767969498737
            ],
            [
              14.271263271179535,
              37.43075423710243
            ],
            [
              14.269600196892924,
              37.43075423710243
            ],
            [
              14.269600196892924,
              37.42767969498737
            ]
          ]
        ]
      },
      "properties": {
        "su_fid": 17,
        "id_su": 817,
        "su_dscu": "US C2.1",
        "id_evd": 2207,
        "evidence_id_old_str": "SIC.MEL.03-EV02",
        "construction_type_id": 937,
        "construction_type": "ritual deposit",
        "site_code": "SIC.MEL.03",
        "municipality": "Melantera",
        "locality": "Piano delle Anfore",
        "address": "Vallone Secco",
        "site_group": "SIC.MEL.03 - Melantera - Piano delle Anfore - Vallone Secco",
        "n_impasto_coarse_ware": 0,
        "n_impasto_semifine_ware": 4,
        "n_impasto_fine_ware": 0,
        "n_red_and_black": 0,
        "n_wash_slipped_red": 0,
        "n_wash_slipped_black": 0,
        "n_etrusco_padana_type": 0,
        "n_black_gloss_attic_ware": 0,
        "n_glossy_surfaced_ware": 2,
        "n_glossy_surfaced_decoration": 0,
        "n_fired_clay": 0,
        "n_bronze": 0,
        "n_iron": 0,
        "n_lithic": 0,
        "n_glass_paste": 0
      }
    },
    {
      "type": "Feature",
      "geometry": {
        "type": "Polygon",
        "coordinates": [
          [
            [
              14.271928600278954,
              37.43219149185765
            ],
            [
              14.273675013337144,
              37.43219149185765
            ],
            [
              14.273675013337144,
              37.4334011249115
            ],
            [
              14.271928600278954,
              37.4334011249115
            ],
            [
              14.271928600278954,
              37.43219149185765
            ]
          ]
        ]
      },
      "properties": {
        "su_fid": 18,
        "id_su": 818,
        "su_dscu": "US C2.2",
        "id_evd": 2207,
        "evidence_id_old_str": "SIC.MEL.03-EV02",
        "construction_type_id": 937,
        "construction_type": "ritual deposit",
        "site_code": "SIC.MEL.03",
        "municipality": "Melantera",
        "locality": "Piano delle Anfore",
        "address": "Vallone Secco",
        "site_group": "SIC.MEL.03 - Melantera - Piano delle Anfore - Vallone Secco",
        "n_impasto_coarse_ware": 2,
        "n_impasto_semifine_ware": 1,
        "n_impasto_fine_ware": 4,
        "n_red_and_black": 0,
        "n_wash_slipped_red": 1,
        "n_wash_slipped_black": 0,
        "n_etrusco_padana_type": 0,
        "n_black_gloss_attic_ware": 4,
        "n_glossy_surfaced_ware": 5,
        "n_glossy_surfaced_decoration": 0,
        "n_fired_clay": 0,
        "n_bronze": 0,
        "n_iron": 0,
        "n_lithic": 0,
        "n_glass_paste": 1
      }
    },
    {
      "type": "Feature",
      "geometry": {
        "type": "Polygon",
        "coordinates": [
          [
            [
              11.11965412550125,
              42.737536686519206
            ],
            [
              11.122077107438402,
              42.737536686519206
            ],
            [
              11.122077107438402,
              42.74006942468094
            ],
            [
              11.11965412550125,
              42.74006942468094
            ],
            [
              11.11965412550125,
              42.737536686519206
            ]
          ]
        ]
      },
      "properties": {
        "su_fid": 19,
        "id_su": 819,
        "su_dscu": "US D1.1",
        "id_evd": 2208,
        "evidence_id_old_str": "TUS.FOR.04-EV01",
        "construction_type_id": 939,
        "construction_type": "wall foundation",
        "site_code": "TUS.FOR.04",
        "municipality": "Fornace Alta",
        "locality": "Poggio dei Fabbri",
        "address": "Podere Scuro",
        "site_group": "TUS.FOR.04 - Fornace Alta - Poggio dei Fabbri - Podere Scuro",
        "n_impasto_coarse_ware": 0,
        "n_impasto_semifine_ware": 0,
        "n_impasto_fine_ware": 0,
        "n_red_and_black": 0,
        "n_wash_slipped_red": 0,
        "n_wash_slipped_black": 0,
        "n_etrusco_padana_type": 0,
        "n_black_gloss_attic_ware": 0,
        "n_glossy_surfaced_ware": 0,
        "n_glossy_surfaced_decoration": 0,
        "n_fired_clay": 0,
        "n_bronze": 0,
        "n_iron": 3,
        "n_lithic": 0,
        "n_glass_paste": 0
      }
    },
    {
      "type": "Feature",
      "geometry": {
        "type": "Polygon",
        "coordinates": [
          [
            [
              11.123029575123752,
              42.7406788162536
            ],
            [
              11.124885803999955,
              42.7406788162536
            ],
            [
              11.124885803999955,
              42.74343062874632
            ],
            [
              11.123029575123752,
              42.74343062874632
            ],
            [
              11.123029575123752,
              42.7406788162536
            ]
          ]
        ]
      },
      "properties": {
        "su_fid": 20,
        "id_su": 820,
        "su_dscu": "US D1.2",
        "id_evd": 2208,
        "evidence_id_old_str": "TUS.FOR.04-EV01",
        "construction_type_id": 939,
        "construction_type": "wall foundation",
        "site_code": "TUS.FOR.04",
        "municipality": "Fornace Alta",
        "locality": "Poggio dei Fabbri",
        "address": "Podere Scuro",
        "site_group": "TUS.FOR.04 - Fornace Alta - Poggio dei Fabbri - Podere Scuro",
        "n_impasto_coarse_ware": 0,
        "n_impasto_semifine_ware": 0,
        "n_impasto_fine_ware": 0,
        "n_red_and_black": 0,
        "n_wash_slipped_red": 0,
        "n_wash_slipped_black": 0,
        "n_etrusco_padana_type": 0,
        "n_black_gloss_attic_ware": 0,
        "n_glossy_surfaced_ware": 0,
        "n_glossy_surfaced_decoration": 0,
        "n_fired_clay": 0,
        "n_bronze": 3,
        "n_iron": 14,
        "n_lithic": 1,
        "n_glass_paste": 0
      }
    },
    {
      "type": "Feature",
      "geometry": {
        "type": "Polygon",
        "coordinates": [
          [
            [
              11.119790490544402,
              42.744324288433305
            ],
            [
              11.122225960716806,
              42.744324288433305
            ],
            [
              11.122225960716806,
              42.7459649734939
            ],
            [
              11.119790490544402,
              42.7459649734939
            ],
            [
              11.119790490544402,
              42.744324288433305
            ]
          ]
        ]
      },
      "properties": {
        "su_fid": 21,
        "id_su": 821,
        "su_dscu": "US D1.3",
        "id_evd": 2208,
        "evidence_id_old_str": "TUS.FOR.04-EV01",
        "construction_type_id": 939,
        "construction_type": "wall foundation",
        "site_code": "TUS.FOR.04",
        "municipality": "Fornace Alta",
        "locality": "Poggio dei Fabbri",
        "address": "Podere Scuro",
        "site_group": "TUS.FOR.04 - Fornace Alta - Poggio dei Fabbri - Podere Scuro",
        "n_impasto_coarse_ware": 0,
        "n_impasto_semifine_ware": 0,
        "n_impasto_fine_ware": 0,
        "n_red_and_black": 0,
        "n_wash_slipped_red": 0,
        "n_wash_slipped_black": 0,
        "n_etrusco_padana_type": 0,
        "n_black_gloss_attic_ware": 0,
        "n_glossy_surfaced_ware": 0,
        "n_glossy_surfaced_decoration": 0,
        "n_fired_clay": 0,
        "n_bronze": 0,
        "n_iron": 0,
        "n_lithic": 0,
        "n_glass_paste": 0
      }
    },
    {
      "type": "Feature",
      "geometry": {
        "type": "Polygon",
        "coordinates": [
          [
            [
              11.125119144383365,
              42.739397784508355
            ],
            [
              11.128239133063339,
              42.739397784508355
            ],
            [
              11.128239133063339,
              42.74245403189441
            ],
            [
              11.125119144383365,
              42.74245403189441
            ],
            [
              11.125119144383365,
              42.739397784508355
            ]
          ]
        ]
      },
      "properties": {
        "su_fid": 22,
        "id_su": 822,
        "su_dscu": "US D2.1",
        "id_evd": 2209,
        "evidence_id_old_str": "TUS.FOR.04-EV02",
        "construction_type_id": 940,
        "construction_type": "burial fill",
        "site_code": "TUS.FOR.04",
        "municipality": "Fornace Alta",
        "locality": "Poggio dei Fabbri",
        "address": "Podere Scuro",
        "site_group": "TUS.FOR.04 - Fornace Alta - Poggio dei Fabbri - Podere Scuro",
        "n_impasto_coarse_ware": 0,
        "n_impasto_semifine_ware": 0,
        "n_impasto_fine_ware": 0,
        "n_red_and_black": 0,
        "n_wash_slipped_red": 0,
        "n_wash_slipped_black": 0,
        "n_etrusco_padana_type": 0,
        "n_black_gloss_attic_ware": 0,
        "n_glossy_surfaced_ware": 0,
        "n_glossy_surfaced_decoration": 0,
        "n_fired_clay": 1,
        "n_bronze": 3,
        "n_iron": 3,
        "n_lithic": 1,
        "n_glass_paste": 0
      }
    },
    {
      "type": "Feature",
      "geometry": {
        "type": "Polygon",
        "coordinates": [
          [
            [
              11.128009468018234,
              42.741966756593634
            ],
            [
              11.130523956160644,
              42.741966756593634
            ],
            [
              11.130523956160644,
              42.74397919049533
            ],
            [
              11.128009468018234,
              42.74397919049533
            ],
            [
              11.128009468018234,
              42.741966756593634
            ]
          ]
        ]
      },
      "properties": {
        "su_fid": 23,
        "id_su": 823,
        "su_dscu": "US D2.2",
        "id_evd": 2209,
        "evidence_id_old_str": "TUS.FOR.04-EV02",
        "construction_type_id": 940,
        "construction_type": "burial fill",
        "site_code": "TUS.FOR.04",
        "municipality": "Fornace Alta",
        "locality": "Poggio dei Fabbri",
        "address": "Podere Scuro",
        "site_group": "TUS.FOR.04 - Fornace Alta - Poggio dei Fabbri - Podere Scuro",
        "n_impasto_coarse_ware": 0,
        "n_impasto_semifine_ware": 0,
        "n_impasto_fine_ware": 0,
        "n_red_and_black": 0,
        "n_wash_slipped_red": 0,
        "n_wash_slipped_black": 0,
        "n_etrusco_padana_type": 0,
        "n_black_gloss_attic_ware": 0,
        "n_glossy_surfaced_ware": 0,
        "n_glossy_surfaced_decoration": 0,
        "n_fired_clay": 0,
        "n_bronze": 0,
        "n_iron": 4,
        "n_lithic": 0,
        "n_glass_paste": 0
      }
    },
    {
      "type": "Feature",
      "geometry": {
        "type": "Polygon",
        "coordinates": [
          [
            [
              11.131958195547888,
              42.741042961022146
            ],
            [
              11.134634762740223,
              42.741042961022146
            ],
            [
              11.134634762740223,
              42.74209026259601
            ],
            [
              11.131958195547888,
              42.74209026259601
            ],
            [
              11.131958195547888,
              42.741042961022146
            ]
          ]
        ]
      },
      "properties": {
        "su_fid": 24,
        "id_su": 824,
        "su_dscu": "US D3.1",
        "id_evd": 2210,
        "evidence_id_old_str": "TUS.FOR.04-EV03",
        "construction_type_id": 930,
        "construction_type": "surface scatter",
        "site_code": "TUS.FOR.04",
        "municipality": "Fornace Alta",
        "locality": "Poggio dei Fabbri",
        "address": "Podere Scuro",
        "site_group": "TUS.FOR.04 - Fornace Alta - Poggio dei Fabbri - Podere Scuro",
        "n_impasto_coarse_ware": 0,
        "n_impasto_semifine_ware": 0,
        "n_impasto_fine_ware": 0,
        "n_red_and_black": 0,
        "n_wash_slipped_red": 0,
        "n_wash_slipped_black": 0,
        "n_etrusco_padana_type": 0,
        "n_black_gloss_attic_ware": 0,
        "n_glossy_surfaced_ware": 0,
        "n_glossy_surfaced_decoration": 0,
        "n_fired_clay": 0,
        "n_bronze": 0,
        "n_iron": 5,
        "n_lithic": 1,
        "n_glass_paste": 0
      }
    },
    {
      "type": "Feature",
      "geometry": {
        "type": "Polygon",
        "coordinates": [
          [
            [
              11.13395587664138,
              42.74409917067865
            ],
            [
              11.136872256288761,
              42.74409917067865
            ],
            [
              11.136872256288761,
              42.74673091215294
            ],
            [
              11.13395587664138,
              42.74673091215294
            ],
            [
              11.13395587664138,
              42.74409917067865
            ]
          ]
        ]
      },
      "properties": {
        "su_fid": 25,
        "id_su": 825,
        "su_dscu": "US D3.2",
        "id_evd": 2210,
        "evidence_id_old_str": "TUS.FOR.04-EV03",
        "construction_type_id": 930,
        "construction_type": "surface scatter",
        "site_code": "TUS.FOR.04",
        "municipality": "Fornace Alta",
        "locality": "Poggio dei Fabbri",
        "address": "Podere Scuro",
        "site_group": "TUS.FOR.04 - Fornace Alta - Poggio dei Fabbri - Podere Scuro",
        "n_impasto_coarse_ware": 0,
        "n_impasto_semifine_ware": 0,
        "n_impasto_fine_ware": 0,
        "n_red_and_black": 0,
        "n_wash_slipped_red": 0,
        "n_wash_slipped_black": 0,
        "n_etrusco_padana_type": 0,
        "n_black_gloss_attic_ware": 0,
        "n_glossy_surfaced_ware": 0,
        "n_glossy_surfaced_decoration": 0,
        "n_fired_clay": 0,
        "n_bronze": 1,
        "n_iron": 6,
        "n_lithic": 5,
        "n_glass_paste": 0
      }
    },
    {
      "type": "Feature",
      "geometry": {
        "type": "Polygon",
        "coordinates": [
          [
            [
              11.132688661446553,
              42.74725473131078
            ],
            [
              11.134219501440457,
              42.74725473131078
            ],
            [
              11.134219501440457,
              42.748363285446665
            ],
            [
              11.132688661446553,
              42.748363285446665
            ],
            [
              11.132688661446553,
              42.74725473131078
            ]
          ]
        ]
      },
      "properties": {
        "su_fid": 26,
        "id_su": 826,
        "su_dscu": "US D3.3",
        "id_evd": 2210,
        "evidence_id_old_str": "TUS.FOR.04-EV03",
        "construction_type_id": 930,
        "construction_type": "surface scatter",
        "site_code": "TUS.FOR.04",
        "municipality": "Fornace Alta",
        "locality": "Poggio dei Fabbri",
        "address": "Podere Scuro",
        "site_group": "TUS.FOR.04 - Fornace Alta - Poggio dei Fabbri - Podere Scuro",
        "n_impasto_coarse_ware": 0,
        "n_impasto_semifine_ware": 0,
        "n_impasto_fine_ware": 0,
        "n_red_and_black": 0,
        "n_wash_slipped_red": 0,
        "n_wash_slipped_black": 0,
        "n_etrusco_padana_type": 0,
        "n_black_gloss_attic_ware": 0,
        "n_glossy_surfaced_ware": 0,
        "n_glossy_surfaced_decoration": 0,
        "n_fired_clay": 0,
        "n_bronze": 0,
        "n_iron": 0,
        "n_lithic": 0,
        "n_glass_paste": 0
      }
    },
    {
      "type": "Feature",
      "geometry": {
        "type": "Polygon",
        "coordinates": [
          [
            [
              13.603712829469675,
              43.477965459280185
            ],
            [
              13.6070429989017,
              43.477965459280185
            ],
            [
              13.6070429989017,
              43.48054745263143
            ],
            [
              13.603712829469675,
              43.48054745263143
            ],
            [
              13.603712829469675,
              43.477965459280185
            ]
          ]
        ]
      },
      "properties": {
        "su_fid": 27,
        "id_su": 827,
        "su_dscu": "US E1.1",
        "id_evd": 2211,
        "evidence_id_old_str": "MAR.ADR.05-EV01",
        "construction_type_id": 931,
        "construction_type": "surface scatter",
        "site_code": "MAR.ADR.05",
        "municipality": "Porto Calamo",
        "locality": "Darsena Vecchia",
        "address": "Via del Faro Antico",
        "site_group": "MAR.ADR.05 - Porto Calamo - Darsena Vecchia - Via del Faro Antico",
        "n_impasto_coarse_ware": 0,
        "n_impasto_semifine_ware": 0,
        "n_impasto_fine_ware": 0,
        "n_red_and_black": 0,
        "n_wash_slipped_red": 0,
        "n_wash_slipped_black": 0,
        "n_etrusco_padana_type": 0,
        "n_black_gloss_attic_ware": 0,
        "n_glossy_surfaced_ware": 0,
        "n_glossy_surfaced_decoration": 0,
        "n_fired_clay": 0,
        "n_bronze": 0,
        "n_iron": 0,
        "n_lithic": 0,
        "n_glass_paste": 0
      }
    },
    {
      "type": "Feature",
      "geometry": {
        "type": "Polygon",
        "coordinates": [
          [
            [
              13.606285989109022,
              43.48012581160449
            ],
            [
              13.607753968413427,
              43.48012581160449
            ],
            [
              13.607753968413427,
              43.482527675538954
            ],
            [
              13.606285989109022,
              43.482527675538954
            ],
            [
              13.606285989109022,
              43.48012581160449
            ]
          ]
        ]
      },
      "properties": {
        "su_fid": 28,
        "id_su": 828,
        "su_dscu": "US E1.2",
        "id_evd": 2211,
        "evidence_id_old_str": "MAR.ADR.05-EV01",
        "construction_type_id": 931,
        "construction_type": "surface scatter",
        "site_code": "MAR.ADR.05",
        "municipality": "Porto Calamo",
        "locality": "Darsena Vecchia",
        "address": "Via del Faro Antico",
        "site_group": "MAR.ADR.05 - Porto Calamo - Darsena Vecchia - Via del Faro Antico",
        "n_impasto_coarse_ware": 0,
        "n_impasto_semifine_ware": 0,
        "n_impasto_fine_ware": 2,
        "n_red_and_black": 0,
        "n_wash_slipped_red": 0,
        "n_wash_slipped_black": 0,
        "n_etrusco_padana_type": 0,
        "n_black_gloss_attic_ware": 0,
        "n_glossy_surfaced_ware": 1,
        "n_glossy_surfaced_decoration": 0,
        "n_fired_clay": 0,
        "n_bronze": 0,
        "n_iron": 0,
        "n_lithic": 0,
        "n_glass_paste": 0
      }
    },
    {
      "type": "Feature",
      "geometry": {
        "type": "Polygon",
        "coordinates": [
          [
            [
              13.604247646121559,
              43.483083068408206
            ],
            [
              13.606441651195626,
              43.483083068408206
            ],
            [
              13.606441651195626,
              43.4858448161627
            ],
            [
              13.604247646121559,
              43.4858448161627
            ],
            [
              13.604247646121559,
              43.483083068408206
            ]
          ]
        ]
      },
      "properties": {
        "su_fid": 29,
        "id_su": 829,
        "su_dscu": "US E1.3",
        "id_evd": 2211,
        "evidence_id_old_str": "MAR.ADR.05-EV01",
        "construction_type_id": 931,
        "construction_type": "surface scatter",
        "site_code": "MAR.ADR.05",
        "municipality": "Porto Calamo",
        "locality": "Darsena Vecchia",
        "address": "Via del Faro Antico",
        "site_group": "MAR.ADR.05 - Porto Calamo - Darsena Vecchia - Via del Faro Antico",
        "n_impasto_coarse_ware": 0,
        "n_impasto_semifine_ware": 0,
        "n_impasto_fine_ware": 0,
        "n_red_and_black": 0,
        "n_wash_slipped_red": 0,
        "n_wash_slipped_black": 1,
        "n_etrusco_padana_type": 0,
        "n_black_gloss_attic_ware": 1,
        "n_glossy_surfaced_ware": 1,
        "n_glossy_surfaced_decoration": 0,
        "n_fired_clay": 0,
        "n_bronze": 0,
        "n_iron": 0,
        "n_lithic": 0,
        "n_glass_paste": 1
      }
    },
    {
      "type": "Feature",
      "geometry": {
        "type": "Polygon",
        "coordinates": [
          [
            [
              13.60645470478831,
              43.48735897342523
            ],
            [
              13.60900919921104,
              43.48735897342523
            ],
            [
              13.60900919921104,
              43.48965091220269
            ],
            [
              13.60645470478831,
              43.48965091220269
            ],
            [
              13.60645470478831,
              43.48735897342523
            ]
          ]
        ]
      },
      "properties": {
        "su_fid": 30,
        "id_su": 830,
        "su_dscu": "US E1.4",
        "id_evd": 2211,
        "evidence_id_old_str": "MAR.ADR.05-EV01",
        "construction_type_id": 931,
        "construction_type": "surface scatter",
        "site_code": "MAR.ADR.05",
        "municipality": "Porto Calamo",
        "locality": "Darsena Vecchia",
        "address": "Via del Faro Antico",
        "site_group": "MAR.ADR.05 - Porto Calamo - Darsena Vecchia - Via del Faro Antico",
        "n_impasto_coarse_ware": 1,
        "n_impasto_semifine_ware": 0,
        "n_impasto_fine_ware": 3,
        "n_red_and_black": 0,
        "n_wash_slipped_red": 0,
        "n_wash_slipped_black": 2,
        "n_etrusco_padana_type": 0,
        "n_black_gloss_attic_ware": 2,
        "n_glossy_surfaced_ware": 2,
        "n_glossy_surfaced_decoration": 0,
        "n_fired_clay": 0,
        "n_bronze": 0,
        "n_iron": 0,
        "n_lithic": 0,
        "n_glass_paste": 2
      }
    },
    {
      "type": "Feature",
      "geometry": {
        "type": "Polygon",
        "coordinates": [
          [
            [
              13.609540835323818,
              43.47987866317699
            ],
            [
              13.613215548743545,
              43.47987866317699
            ],
            [
              13.613215548743545,
              43.48175461463184
            ],
            [
              13.609540835323818,
              43.48175461463184
            ],
            [
              13.609540835323818,
              43.47987866317699
            ]
          ]
        ]
      },
      "properties": {
        "su_fid": 31,
        "id_su": 831,
        "su_dscu": "US E2.1",
        "id_evd": 2212,
        "evidence_id_old_str": "MAR.ADR.05-EV02",
        "construction_type_id": 932,
        "construction_type": "drainage cut",
        "site_code": "MAR.ADR.05",
        "municipality": "Porto Calamo",
        "locality": "Darsena Vecchia",
        "address": "Via del Faro Antico",
        "site_group": "MAR.ADR.05 - Porto Calamo - Darsena Vecchia - Via del Faro Antico",
        "n_impasto_coarse_ware": 0,
        "n_impasto_semifine_ware": 0,
        "n_impasto_fine_ware": 0,
        "n_red_and_black": 0,
        "n_wash_slipped_red": 0,
        "n_wash_slipped_black": 0,
        "n_etrusco_padana_type": 0,
        "n_black_gloss_attic_ware": 1,
        "n_glossy_surfaced_ware": 0,
        "n_glossy_surfaced_decoration": 0,
        "n_fired_clay": 0,
        "n_bronze": 1,
        "n_iron": 0,
        "n_lithic": 0,
        "n_glass_paste": 0
      }
    },
    {
      "type": "Feature",
      "geometry": {
        "type": "Polygon",
        "coordinates": [
          [
            [
              13.612962747726469,
              43.48261332380709
            ],
            [
              13.614760171598048,
              43.48261332380709
            ],
            [
              13.614760171598048,
              43.4838999909222
            ],
            [
              13.612962747726469,
              43.4838999909222
            ],
            [
              13.612962747726469,
              43.48261332380709
            ]
          ]
        ]
      },
      "properties": {
        "su_fid": 32,
        "id_su": 832,
        "su_dscu": "US E2.2",
        "id_evd": "",
        "evidence_id_old_str": "evidence ND",
        "construction_type_id": "",
        "construction_type": "construction_type ND",
        "site_code": "MAR.ADR.05",
        "municipality": "Porto Calamo",
        "locality": "Darsena Vecchia",
        "address": "Via del Faro Antico",
        "site_group": "MAR.ADR.05 - Porto Calamo - Darsena Vecchia - Via del Faro Antico",
        "n_impasto_coarse_ware": 0,
        "n_impasto_semifine_ware": 0,
        "n_impasto_fine_ware": 0,
        "n_red_and_black": 0,
        "n_wash_slipped_red": 0,
        "n_wash_slipped_black": 0,
        "n_etrusco_padana_type": 0,
        "n_black_gloss_attic_ware": 1,
        "n_glossy_surfaced_ware": 0,
        "n_glossy_surfaced_decoration": 0,
        "n_fired_clay": 0,
        "n_bronze": 0,
        "n_iron": 0,
        "n_lithic": 0,
        "n_glass_paste": 1
      }
    },
    {
      "type": "Feature",
      "geometry": {
        "type": "Polygon",
        "coordinates": [
          [
            [
              12.378214945193353,
              42.93742808439282
            ],
            [
              12.381058932782928,
              42.93742808439282
            ],
            [
              12.381058932782928,
              42.93926318023384
            ],
            [
              12.378214945193353,
              42.93926318023384
            ],
            [
              12.378214945193353,
              42.93742808439282
            ]
          ]
        ]
      },
      "properties": {
        "su_fid": 33,
        "id_su": 833,
        "su_dscu": "US F1.1",
        "id_evd": 2213,
        "evidence_id_old_str": "UMB.VEL.06-EV01",
        "construction_type_id": 934,
        "construction_type": "ditch",
        "site_code": "UMB.VEL.06",
        "municipality": "Valle Erma",
        "locality": "Terrazza del Noce",
        "address": "Fosso del Lupo",
        "site_group": "UMB.VEL.06 - Valle Erma - Terrazza del Noce - Fosso del Lupo",
        "n_impasto_coarse_ware": 1,
        "n_impasto_semifine_ware": 1,
        "n_impasto_fine_ware": 0,
        "n_red_and_black": 0,
        "n_wash_slipped_red": 0,
        "n_wash_slipped_black": 0,
        "n_etrusco_padana_type": 0,
        "n_black_gloss_attic_ware": 0,
        "n_glossy_surfaced_ware": 0,
        "n_glossy_surfaced_decoration": 0,
        "n_fired_clay": 0,
        "n_bronze": 0,
        "n_iron": 0,
        "n_lithic": 1,
        "n_glass_paste": 0
      }
    },
    {
      "type": "Feature",
      "geometry": {
        "type": "Polygon",
        "coordinates": [
          [
            [
              12.381070287814426,
              42.94042968372591
            ],
            [
              12.383690747501179,
              42.94042968372591
            ],
            [
              12.383690747501179,
              42.942064295487285
            ],
            [
              12.381070287814426,
              42.942064295487285
            ],
            [
              12.381070287814426,
              42.94042968372591
            ]
          ]
        ]
      },
      "properties": {
        "su_fid": 34,
        "id_su": 834,
        "su_dscu": "US F1.2",
        "id_evd": 2213,
        "evidence_id_old_str": "UMB.VEL.06-EV01",
        "construction_type_id": 934,
        "construction_type": "ditch",
        "site_code": "UMB.VEL.06",
        "municipality": "Valle Erma",
        "locality": "Terrazza del Noce",
        "address": "Fosso del Lupo",
        "site_group": "UMB.VEL.06 - Valle Erma - Terrazza del Noce - Fosso del Lupo",
        "n_impasto_coarse_ware": 2,
        "n_impasto_semifine_ware": 0,
        "n_impasto_fine_ware": 3,
        "n_red_and_black": 0,
        "n_wash_slipped_red": 0,
        "n_wash_slipped_black": 0,
        "n_etrusco_padana_type": 0,
        "n_black_gloss_attic_ware": 0,
        "n_glossy_surfaced_ware": 0,
        "n_glossy_surfaced_decoration": 0,
        "n_fired_clay": 1,
        "n_bronze": 0,
        "n_iron": 3,
        "n_lithic": 3,
        "n_glass_paste": 0
      }
    },
    {
      "type": "Feature",
      "geometry": {
        "type": "Polygon",
        "coordinates": [
          [
            [
              12.378994610887018,
              42.94219353767995
            ],
            [
              12.38080027670424,
              42.94219353767995
            ],
            [
              12.38080027670424,
              42.9444333594441
            ],
            [
              12.378994610887018,
              42.9444333594441
            ],
            [
              12.378994610887018,
              42.94219353767995
            ]
          ]
        ]
      },
      "properties": {
        "su_fid": 35,
        "id_su": 835,
        "su_dscu": "US F1.3",
        "id_evd": 2213,
        "evidence_id_old_str": "UMB.VEL.06-EV01",
        "construction_type_id": 934,
        "construction_type": "ditch",
        "site_code": "UMB.VEL.06",
        "municipality": "Valle Erma",
        "locality": "Terrazza del Noce",
        "address": "Fosso del Lupo",
        "site_group": "UMB.VEL.06 - Valle Erma - Terrazza del Noce - Fosso del Lupo",
        "n_impasto_coarse_ware": 1,
        "n_impasto_semifine_ware": 0,
        "n_impasto_fine_ware": 0,
        "n_red_and_black": 0,
        "n_wash_slipped_red": 0,
        "n_wash_slipped_black": 0,
        "n_etrusco_padana_type": 0,
        "n_black_gloss_attic_ware": 0,
        "n_glossy_surfaced_ware": 0,
        "n_glossy_surfaced_decoration": 0,
        "n_fired_clay": 0,
        "n_bronze": 0,
        "n_iron": 0,
        "n_lithic": 1,
        "n_glass_paste": 0
      }
    },
    {
      "type": "Feature",
      "geometry": {
        "type": "Polygon",
        "coordinates": [
          [
            [
              12.381116455108595,
              42.94604987520973
            ],
            [
              12.384695822541259,
              42.94604987520973
            ],
            [
              12.384695822541259,
              42.9472959070329
            ],
            [
              12.381116455108595,
              42.9472959070329
            ],
            [
              12.381116455108595,
              42.94604987520973
            ]
          ]
        ]
      },
      "properties": {
        "su_fid": 36,
        "id_su": 836,
        "su_dscu": "US F1.4",
        "id_evd": 2213,
        "evidence_id_old_str": "UMB.VEL.06-EV01",
        "construction_type_id": 934,
        "construction_type": "ditch",
        "site_code": "UMB.VEL.06",
        "municipality": "Valle Erma",
        "locality": "Terrazza del Noce",
        "address": "Fosso del Lupo",
        "site_group": "UMB.VEL.06 - Valle Erma - Terrazza del Noce - Fosso del Lupo",
        "n_impasto_coarse_ware": 1,
        "n_impasto_semifine_ware": 0,
        "n_impasto_fine_ware": 1,
        "n_red_and_black": 0,
        "n_wash_slipped_red": 0,
        "n_wash_slipped_black": 0,
        "n_etrusco_padana_type": 0,
        "n_black_gloss_attic_ware": 0,
        "n_glossy_surfaced_ware": 0,
        "n_glossy_surfaced_decoration": 0,
        "n_fired_clay": 0,
        "n_bronze": 0,
        "n_iron": 0,
        "n_lithic": 1,
        "n_glass_paste": 0
      }
    },
    {
      "type": "Feature",
      "geometry": {
        "type": "Polygon",
        "coordinates": [
          [
            [
              12.385439880674147,
              42.93785438971146
            ],
            [
              12.387102094884094,
              42.93785438971146
            ],
            [
              12.387102094884094,
              42.94005524146793
            ],
            [
              12.385439880674147,
              42.94005524146793
            ],
            [
              12.385439880674147,
              42.93785438971146
            ]
          ]
        ]
      },
      "properties": {
        "su_fid": 37,
        "id_su": 837,
        "su_dscu": "US F2.1",
        "id_evd": "",
        "evidence_id_old_str": "evidence ND",
        "construction_type_id": "",
        "construction_type": "construction_type ND",
        "site_code": "UMB.VEL.06",
        "municipality": "Valle Erma",
        "locality": "Terrazza del Noce",
        "address": "Fosso del Lupo",
        "site_group": "UMB.VEL.06 - Valle Erma - Terrazza del Noce - Fosso del Lupo",
        "n_impasto_coarse_ware": 1,
        "n_impasto_semifine_ware": 1,
        "n_impasto_fine_ware": 0,
        "n_red_and_black": 0,
        "n_wash_slipped_red": 0,
        "n_wash_slipped_black": 0,
        "n_etrusco_padana_type": 0,
        "n_black_gloss_attic_ware": 0,
        "n_glossy_surfaced_ware": 0,
        "n_glossy_surfaced_decoration": 0,
        "n_fired_clay": 0,
        "n_bronze": 0,
        "n_iron": 0,
        "n_lithic": 0,
        "n_glass_paste": 0
      }
    },
    {
      "type": "Feature",
      "geometry": {
        "type": "Polygon",
        "coordinates": [
          [
            [
              12.386571576146597,
              42.94165842625377
            ],
            [
              12.389397814531087,
              42.94165842625377
            ],
            [
              12.389397814531087,
              42.94415133089949
            ],
            [
              12.386571576146597,
              42.94415133089949
            ],
            [
              12.386571576146597,
              42.94165842625377
            ]
          ]
        ]
      },
      "properties": {
        "su_fid": 38,
        "id_su": 838,
        "su_dscu": "US F2.2",
        "id_evd": 2214,
        "evidence_id_old_str": "UMB.VEL.06-EV02",
        "construction_type_id": 935,
        "construction_type": "hut floor",
        "site_code": "UMB.VEL.06",
        "municipality": "Valle Erma",
        "locality": "Terrazza del Noce",
        "address": "Fosso del Lupo",
        "site_group": "UMB.VEL.06 - Valle Erma - Terrazza del Noce - Fosso del Lupo",
        "n_impasto_coarse_ware": 1,
        "n_impasto_semifine_ware": 0,
        "n_impasto_fine_ware": 0,
        "n_red_and_black": 0,
        "n_wash_slipped_red": 0,
        "n_wash_slipped_black": 0,
        "n_etrusco_padana_type": 0,
        "n_black_gloss_attic_ware": 0,
        "n_glossy_surfaced_ware": 0,
        "n_glossy_surfaced_decoration": 0,
        "n_fired_clay": 0,
        "n_bronze": 0,
        "n_iron": 0,
        "n_lithic": 1,
        "n_glass_paste": 0
      }
    }
  ]
}